55797,ONEWEB-0534,2023,109.03,-1.0,+,87.92,Active,0,LEO,USA,UK,Unknown,Unknown,Unknown,1 55797U 23029B   24022.19296700 -.00001398  00000+0 -34702-2 0  9993,2 55797  87.9181  89.0484 0001975 101.9928 258.1426 13.20777978 45383,13.20777978,0.0001975,LEO
55798,ONEWEB-0556,2023,109.03,-1.0,+,87.92,Active,0,LEO,USA,UK,Unknown,Unknown,Unknown,1 55798U 23029C   24022.19927757 -.00000023  00000+0 -87305-4 0  9990,2 55798  87.9176  89.0421 0001818 133.4034 226.7251 13.20770657 45387,13.20770657,0.0001818,LEO
55799,ONEWEB-0562,2023,109.03,-1.0,+,87.92,Active,0,LEO,USA,UK,Unknown,Unknown,Unknown,1 55799U 23029D   24022.18665361 -.00000028  00000+0 -10183-3 0  9994,2 55799  87.9176  89.0341 0001073 139.6110 220.5103 13.20770851 45389,13.20770851,0.0001073,LEO
55800,ONEWEB-0563,2023,109.03,-1.0,+,87.92,Active,0,LEO,USA,UK,Unknown,Unknown,Unknown,1 55800U 23029E   24022.25610276  .00000004  00000+0 -23005-4 0  9991,2 55800  87.9176  89.0354 0001826 113.8443 246.2882 13.20770271 45380,13.20770271,0.0001826,LEO
55801,ONEWEB-0564,2023,109.03,148.0,+,87.92,Active,1,LEO,USA,UK,Commercial,Communications,Falcon,1 55801U 23029F   24022.24978661  .00000039  00000+0  64540-4 0  9992,2 55801  87.9179  89.0206 0001361 101.2602 258.8685 13.20772596 45395,13.20772596,0.0001361,LEO
55802,ONEWEB-0638,2023,109.55,148.0,+,87.9,Active,1,LEO,USA,UK,Commercial,Communications,Falcon,1 55802U 23029G   24022.28783352  .00000232  00000+0  59250-3 0  9994,2 55802  87.8974 104.3029 0002158 123.9800 236.1535 13.14503386 44190,13.14503386,0.0002158,LEO
55803,ONEWEB-0639,2023,109.11,148.0,+,87.92,Active,1,LEO,USA,UK,Commercial,Communications,Falcon,1 55803U 23029H   24022.28651069  .00000132  00000+0  29648-3 0  9991,2 55803  87.9209 119.5310 0003267 104.7494 255.4001 13.19724191 43243,13.19724191,0.0003267,LEO
55804,ONEWEB-0640,2023,109.55,148.0,+,87.9,Active,1,LEO,USA,UK,Commercial,Communications,Falcon,1 55804U 23029J   24022.29735081  .00000211  00000+0  53452-3 0  9998,2 55804  87.8974 104.3003 0002376 123.7963 236.3393 13.14503169 44210,13.14503169,0.0002376,LEO
